{
    "links": {
        "self": "http://www.neowsapp.com/rest/v1/neo/3388317?api_key=iIulBulltgU6a56xZRHN4H3l9WmuAYTsLGpBGhQ2"
    },
    "id": "3388317",
    "neo_reference_id": "3388317",
    "name": "(2007 TW24)",
    "designation": "2007 TW24",
    "nasa_jpl_url": "http://ssd.jpl.nasa.gov/sbdb.cgi?sstr=3388317",
    "absolute_magnitude_h": 26.1,
    "estimated_diameter": {
        "kilometers": {
            "estimated_diameter_min": 0.0160160338,
            "estimated_diameter_max": 0.0358129403
        },
        "meters": {
            "estimated_diameter_min": 16.0160337979,
            "estimated_diameter_max": 35.8129403019
        },
        "miles": {
            "estimated_diameter_min": 0.0099518989,
            "estimated_diameter_max": 0.0222531225
        },
        "feet": {
            "estimated_diameter_min": 52.5460443254,
            "estimated_diameter_max": 117.4965270602
        }
    },
    "is_potentially_hazardous_asteroid": false,
    "close_approach_data": [
        {
            "close_approach_date": "2007-10-18",
            "close_approach_date_full": "2007-Oct-18 18:16",
            "epoch_date_close_approach": 1192731360000,
            "relative_velocity": {
                "kilometers_per_second": "13.1455828856",
                "kilometers_per_hour": "47324.098388079",
                "miles_per_hour": "29405.3543567483"
            },
            "miss_distance": {
                "astronomical": "0.0082761579",
                "lunar": "3.2194254231",
                "kilometers": "1238095.593623673",
                "miles": "769316.9281777674"
            },
            "orbiting_body": "Moon"
        },
        {
            "close_approach_date": "2007-10-18",
            "close_approach_date_full": "2007-Oct-18 20:42",
            "epoch_date_close_approach": 1192740120000,
            "relative_velocity": {
                "kilometers_per_second": "12.2343225161",
                "kilometers_per_hour": "44043.561057893",
                "miles_per_hour": "27366.9560362225"
            },
            "miss_distance": {
                "astronomical": "0.0077732149",
                "lunar": "3.0237805961",
                "kilometers": "1162856.392092263",
                "miles": "722565.4562407094"
            },
            "orbiting_body": "Earth"
        }
    ],
    "orbital_data": {
        "orbit_id": "7",
        "orbit_determination_date": "2017-04-06 09:05:43",
        "first_observation_date": "2007-10-11",
        "last_observation_date": "2007-10-15",
        "data_arc_in_days": 4,
        "observations_used": 14,
        "orbit_uncertainty": "9",
        "minimum_orbit_intersection": ".00777838",
        "jupiter_tisserand_invariant": "3.396",
        "epoch_osculation": "2454387.5",
        "eccentricity": ".604735572523151",
        "semi_major_axis": "2.204816644002793",
        "inclination": "2.353332076546396",
        "ascending_node_longitude": "14.0934480685329",
        "orbital_period": "1195.796133727561",
        "perihelion_distance": ".8714855884831917",
        "perihelion_argument": "59.15105798134048",
        "aphelion_distance": "3.538147699522395",
        "perihelion_time": "2454426.872012110068",
        "mean_anomaly": "348.1468722302678",
        "mean_motion": ".3010546612805984",
        "equinox": "J2000",
        "orbit_class": {
            "orbit_class_type": "APO",
            "orbit_class_description": "Near-Earth asteroid orbits which cross the Earth’s orbit similar to that of 1862 Apollo",
            "orbit_class_range": "a (semi-major axis) > 1.0 AU; q (perihelion) < 1.017 AU"
        }
    },
    "is_sentry_object": false
}